{
  "type": "FeatureCollection",
  "features": [
    {
      "type": "Feature",
      "properties": {
        "Parcel_ID": "PARCEL-001"
      },
      "geometry": {
        "type": "Polygon",
        "coordinates": [
          [
            [
              82.9127,
              25.353
            ],
            [
              82.9247,
              25.3544
            ],
            [
              82.9277,
              25.3446
            ],
            [
              82.91495,
              25.3425
            ],
            [
              82.9127,
              25.353
            ]
          ]
        ]
      }
    },
    {
      "type": "Feature",
      "properties": {
        "Parcel_ID": "PARCEL-002"
      },
      "geometry": {
        "type": "Polygon",
        "coordinates": [
          [
            [
              82.9277,
              25.3572
            ],
            [
              82.9397,
              25.3586
            ],
            [
              82.94195,
              25.3488
            ],
            [
              82.9292,
              25.3467
            ],
            [
              82.9277,
              25.3572
            ]
          ]
        ]
      }
    },
    {
      "type": "Feature",
      "properties": {
        "Parcel_ID": "PARCEL-003"
      },
      "geometry": {
        "type": "Polygon",
        "coordinates": [
          [
            [
              82.9427,
              25.36
            ],
            [
              82.9562,
              25.3614
            ],
            [
              82.95845,
              25.3509
            ],
            [
              82.9442,
              25.3488
            ],
            [
              82.9427,
              25.36
            ]
          ]
        ]
      }
    },
    {
      "type": "Feature",
      "properties": {
        "Parcel_ID": "PARCEL-004"
      },
      "geometry": {
        "type": "Polygon",
        "coordinates": [
          [
            [
              82.95845,
              25.3509
            ],
            [
              82.97195,
              25.353
            ],
            [
              82.9742,
              25.3425
            ],
            [
              82.95995,
              25.3404
            ],
            [
              82.95845,
              25.3509
            ]
          ]
        ]
      }
    },
    {
      "type": "Feature",
      "properties": {
        "Parcel_ID": "PARCEL-005"
      },
      "geometry": {
        "type": "Polygon",
        "coordinates": [
          [
            [
              82.91495,
              25.3425
            ],
            [
              82.9277,
              25.3446
            ],
            [
              82.9307,
              25.3327
            ],
            [
              82.9172,
              25.3306
            ],
            [
              82.91495,
              25.3425
            ]
          ]
        ]
      }
    },
    {
      "type": "Feature",
      "properties": {
        "Parcel_ID": "PARCEL-006"
      },
      "geometry": {
        "type": "Polygon",
        "coordinates": [
          [
            [
              82.9292,
              25.3467
            ],
            [
              82.94195,
              25.3488
            ],
            [
              82.9442,
              25.3376
            ],
            [
              82.9307,
              25.3355
            ],
            [
              82.9292,
              25.3467
            ]
          ]
        ]
      }
    },
    {
      "type": "Feature",
      "properties": {
        "Parcel_ID": "PARCEL-007"
      },
      "geometry": {
        "type": "Polygon",
        "coordinates": [
          [
            [
              82.9442,
              25.3488
            ],
            [
              82.95845,
              25.3509
            ],
            [
              82.95995,
              25.3404
            ],
            [
              82.94645,
              25.3383
            ],
            [
              82.9442,
              25.3488
            ]
          ]
        ]
      }
    },
    {
      "type": "Feature",
      "properties": {
        "Parcel_ID": "PARCEL-008"
      },
      "geometry": {
        "type": "Polygon",
        "coordinates": [
          [
            [
              82.95995,
              25.3404
            ],
            [
              82.9742,
              25.3425
            ],
            [
              82.97645,
              25.332
            ],
            [
              82.9622,
              25.3299
            ],
            [
              82.95995,
              25.3404
            ]
          ]
        ]
      }
    },
    {
      "type": "Feature",
      "properties": {
        "Parcel_ID": "PARCEL-009"
      },
      "geometry": {
        "type": "Polygon",
        "coordinates": [
          [
            [
              82.8917,
              25.3642
            ],
            [
              82.8989,
              25.3649
            ],
            [
              82.9001,
              25.35888
            ],
            [
              82.8911,
              25.35818
            ],
            [
              82.8917,
              25.3642
            ]
          ]
        ]
      }
    },
    {
      "type": "Feature",
      "properties": {
        "Parcel_ID": "PARCEL-010"
      },
      "geometry": {
        "type": "Polygon",
        "coordinates": [
          [
            [
              82.89995,
              25.3642
            ],
            [
              82.90715,
              25.3649
            ],
            [
              82.90835,
              25.35888
            ],
            [
              82.89935,
              25.35818
            ],
            [
              82.89995,
              25.3642
            ]
          ]
        ]
      }
    },
    {
      "type": "Feature",
      "properties": {
        "Parcel_ID": "PARCEL-011"
      },
      "geometry": {
        "type": "Polygon",
        "coordinates": [
          [
            [
              82.9082,
              25.3642
            ],
            [
              82.9154,
              25.3649
            ],
            [
              82.9166,
              25.35888
            ],
            [
              82.9076,
              25.35818
            ],
            [
              82.9082,
              25.3642
            ]
          ]
        ]
      }
    },
    {
      "type": "Feature",
      "properties": {
        "Parcel_ID": "PARCEL-012"
      },
      "geometry": {
        "type": "Polygon",
        "coordinates": [
          [
            [
              82.91645,
              25.3642
            ],
            [
              82.92365,
              25.3649
            ],
            [
              82.92485,
              25.35888
            ],
            [
              82.91585,
              25.35818
            ],
            [
              82.91645,
              25.3642
            ]
          ]
        ]
      }
    },
    {
      "type": "Feature",
      "properties": {
        "Parcel_ID": "PARCEL-013"
      },
      "geometry": {
        "type": "Polygon",
        "coordinates": [
          [
            [
              82.9247,
              25.3642
            ],
            [
              82.9319,
              25.3649
            ],
            [
              82.9331,
              25.35888
            ],
            [
              82.9241,
              25.35818
            ],
            [
              82.9247,
              25.3642
            ]
          ]
        ]
      }
    },
    {
      "type": "Feature",
      "properties": {
        "Parcel_ID": "PARCEL-014"
      },
      "geometry": {
        "type": "Polygon",
        "coordinates": [
          [
            [
              82.93295,
              25.3642
            ],
            [
              82.94015,
              25.3649
            ],
            [
              82.94135,
              25.35888
            ],
            [
              82.93235,
              25.35818
            ],
            [
              82.93295,
              25.3642
            ]
          ]
        ]
      }
    },
    {
      "type": "Feature",
      "properties": {
        "Parcel_ID": "PARCEL-015"
      },
      "geometry": {
        "type": "Polygon",
        "coordinates": [
          [
            [
              82.9412,
              25.3642
            ],
            [
              82.9484,
              25.3649
            ],
            [
              82.9496,
              25.35888
            ],
            [
              82.9406,
              25.35818
            ],
            [
              82.9412,
              25.3642
            ]
          ]
        ]
      }
    },
    {
      "type": "Feature",
      "properties": {
        "Parcel_ID": "PARCEL-016"
      },
      "geometry": {
        "type": "Polygon",
        "coordinates": [
          [
            [
              82.94945,
              25.3642
            ],
            [
              82.95665,
              25.3649
            ],
            [
              82.95785,
              25.35888
            ],
            [
              82.94885,
              25.35818
            ],
            [
              82.94945,
              25.3642
            ]
          ]
        ]
      }
    },
    {
      "type": "Feature",
      "properties": {
        "Parcel_ID": "PARCEL-017"
      },
      "geometry": {
        "type": "Polygon",
        "coordinates": [
          [
            [
              82.9577,
              25.3642
            ],
            [
              82.9649,
              25.3649
            ],
            [
              82.9661,
              25.35888
            ],
            [
              82.9571,
              25.35818
            ],
            [
              82.9577,
              25.3642
            ]
          ]
        ]
      }
    },
    {
      "type": "Feature",
      "properties": {
        "Parcel_ID": "PARCEL-018"
      },
      "geometry": {
        "type": "Polygon",
        "coordinates": [
          [
            [
              82.96595,
              25.3642
            ],
            [
              82.97315,
              25.3649
            ],
            [
              82.97435,
              25.35888
            ],
            [
              82.96535,
              25.35818
            ],
            [
              82.96595,
              25.3642
            ]
          ]
        ]
      }
    },
    {
      "type": "Feature",
      "properties": {
        "Parcel_ID": "PARCEL-019"
      },
      "geometry": {
        "type": "Polygon",
        "coordinates": [
          [
            [
              82.9742,
              25.3642
            ],
            [
              82.9814,
              25.3649
            ],
            [
              82.9826,
              25.35888
            ],
            [
              82.9736,
              25.35818
            ],
            [
              82.9742,
              25.3642
            ]
          ]
        ]
      }
    },
    {
      "type": "Feature",
      "properties": {
        "Parcel_ID": "PARCEL-020"
      },
      "geometry": {
        "type": "Polygon",
        "coordinates": [
          [
            [
              82.98245,
              25.3642
            ],
            [
              82.98965,
              25.3649
            ],
            [
              82.99085,
              25.35888
            ],
            [
              82.98185,
              25.35818
            ],
            [
              82.98245,
              25.3642
            ]
          ]
        ]
      }
    },
    {
      "type": "Feature",
      "properties": {
        "Parcel_ID": "PARCEL-021"
      },
      "geometry": {
        "type": "Polygon",
        "coordinates": [
          [
            [
              82.89395,
              25.3579
            ],
            [
              82.90115,
              25.3586
            ],
            [
              82.90235,
              25.35258
            ],
            [
              82.89335,
              25.35188
            ],
            [
              82.89395,
              25.3579
            ]
          ]
        ]
      }
    },
    {
      "type": "Feature",
      "properties": {
        "Parcel_ID": "PARCEL-022"
      },
      "geometry": {
        "type": "Polygon",
        "coordinates": [
          [
            [
              82.9022,
              25.3579
            ],
            [
              82.9094,
              25.3586
            ],
            [
              82.9106,
              25.35258
            ],
            [
              82.9016,
              25.35188
            ],
            [
              82.9022,
              25.3579
            ]
          ]
        ]
      }
    },
    {
      "type": "Feature",
      "properties": {
        "Parcel_ID": "PARCEL-023"
      },
      "geometry": {
        "type": "Polygon",
        "coordinates": [
          [
            [
              82.91045,
              25.3579
            ],
            [
              82.91765,
              25.3586
            ],
            [
              82.91885,
              25.35258
            ],
            [
              82.90985,
              25.35188
            ],
            [
              82.91045,
              25.3579
            ]
          ]
        ]
      }
    },
    {
      "type": "Feature",
      "properties": {
        "Parcel_ID": "PARCEL-024"
      },
      "geometry": {
        "type": "Polygon",
        "coordinates": [
          [
            [
              82.9187,
              25.3579
            ],
            [
              82.9259,
              25.3586
            ],
            [
              82.9271,
              25.35258
            ],
            [
              82.9181,
              25.35188
            ],
            [
              82.9187,
              25.3579
            ]
          ]
        ]
      }
    },
    {
      "type": "Feature",
      "properties": {
        "Parcel_ID": "PARCEL-025"
      },
      "geometry": {
        "type": "Polygon",
        "coordinates": [
          [
            [
              82.92695,
              25.3579
            ],
            [
              82.93415,
              25.3586
            ],
            [
              82.93535,
              25.35258
            ],
            [
              82.92635,
              25.35188
            ],
            [
              82.92695,
              25.3579
            ]
          ]
        ]
      }
    },
    {
      "type": "Feature",
      "properties": {
        "Parcel_ID": "PARCEL-026"
      },
      "geometry": {
        "type": "Polygon",
        "coordinates": [
          [
            [
              82.9352,
              25.3579
            ],
            [
              82.9424,
              25.3586
            ],
            [
              82.9436,
              25.35258
            ],
            [
              82.9346,
              25.35188
            ],
            [
              82.9352,
              25.3579
            ]
          ]
        ]
      }
    },
    {
      "type": "Feature",
      "properties": {
        "Parcel_ID": "PARCEL-027"
      },
      "geometry": {
        "type": "Polygon",
        "coordinates": [
          [
            [
              82.94345,
              25.3579
            ],
            [
              82.95065,
              25.3586
            ],
            [
              82.95185,
              25.35258
            ],
            [
              82.94285,
              25.35188
            ],
            [
              82.94345,
              25.3579
            ]
          ]
        ]
      }
    },
    {
      "type": "Feature",
      "properties": {
        "Parcel_ID": "PARCEL-028"
      },
      "geometry": {
        "type": "Polygon",
        "coordinates": [
          [
            [
              82.9517,
              25.3579
            ],
            [
              82.9589,
              25.3586
            ],
            [
              82.9601,
              25.35258
            ],
            [
              82.9511,
              25.35188
            ],
            [
              82.9517,
              25.3579
            ]
          ]
        ]
      }
    },
    {
      "type": "Feature",
      "properties": {
        "Parcel_ID": "PARCEL-029"
      },
      "geometry": {
        "type": "Polygon",
        "coordinates": [
          [
            [
              82.95995,
              25.3579
            ],
            [
              82.96715,
              25.3586
            ],
            [
              82.96835,
              25.35258
            ],
            [
              82.95935,
              25.35188
            ],
            [
              82.95995,
              25.3579
            ]
          ]
        ]
      }
    },
    {
      "type": "Feature",
      "properties": {
        "Parcel_ID": "PARCEL-030"
      },
      "geometry": {
        "type": "Polygon",
        "coordinates": [
          [
            [
              82.9682,
              25.3579
            ],
            [
              82.9754,
              25.3586
            ],
            [
              82.9766,
              25.35258
            ],
            [
              82.9676,
              25.35188
            ],
            [
              82.9682,
              25.3579
            ]
          ]
        ]
      }
    },
    {
      "type": "Feature",
      "properties": {
        "Parcel_ID": "PARCEL-031"
      },
      "geometry": {
        "type": "Polygon",
        "coordinates": [
          [
            [
              82.97645,
              25.3579
            ],
            [
              82.98365,
              25.3586
            ],
            [
              82.98485,
              25.35258
            ],
            [
              82.97585,
              25.35188
            ],
            [
              82.97645,
              25.3579
            ]
          ]
        ]
      }
    },
    {
      "type": "Feature",
      "properties": {
        "Parcel_ID": "PARCEL-032"
      },
      "geometry": {
        "type": "Polygon",
        "coordinates": [
          [
            [
              82.9847,
              25.3579
            ],
            [
              82.9919,
              25.3586
            ],
            [
              82.9931,
              25.35258
            ],
            [
              82.9841,
              25.35188
            ],
            [
              82.9847,
              25.3579
            ]
          ]
        ]
      }
    },
    {
      "type": "Feature",
      "properties": {
        "Parcel_ID": "PARCEL-033"
      },
      "geometry": {
        "type": "Polygon",
        "coordinates": [
          [
            [
              82.8917,
              25.3516
            ],
            [
              82.8989,
              25.3523
            ],
            [
              82.9001,
              25.34628
            ],
            [
              82.8911,
              25.34558
            ],
            [
              82.8917,
              25.3516
            ]
          ]
        ]
      }
    },
    {
      "type": "Feature",
      "properties": {
        "Parcel_ID": "PARCEL-034"
      },
      "geometry": {
        "type": "Polygon",
        "coordinates": [
          [
            [
              82.89995,
              25.3516
            ],
            [
              82.90715,
              25.3523
            ],
            [
              82.90835,
              25.34628
            ],
            [
              82.89935,
              25.34558
            ],
            [
              82.89995,
              25.3516
            ]
          ]
        ]
      }
    },
    {
      "type": "Feature",
      "properties": {
        "Parcel_ID": "PARCEL-035"
      },
      "geometry": {
        "type": "Polygon",
        "coordinates": [
          [
            [
              82.9082,
              25.3516
            ],
            [
              82.9154,
              25.3523
            ],
            [
              82.9166,
              25.34628
            ],
            [
              82.9076,
              25.34558
            ],
            [
              82.9082,
              25.3516
            ]
          ]
        ]
      }
    },
    {
      "type": "Feature",
      "properties": {
        "Parcel_ID": "PARCEL-036"
      },
      "geometry": {
        "type": "Polygon",
        "coordinates": [
          [
            [
              82.91645,
              25.3516
            ],
            [
              82.92365,
              25.3523
            ],
            [
              82.92485,
              25.34628
            ],
            [
              82.91585,
              25.34558
            ],
            [
              82.91645,
              25.3516
            ]
          ]
        ]
      }
    },
    {
      "type": "Feature",
      "properties": {
        "Parcel_ID": "PARCEL-037"
      },
      "geometry": {
        "type": "Polygon",
        "coordinates": [
          [
            [
              82.9247,
              25.3516
            ],
            [
              82.9319,
              25.3523
            ],
            [
              82.9331,
              25.34628
            ],
            [
              82.9241,
              25.34558
            ],
            [
              82.9247,
              25.3516
            ]
          ]
        ]
      }
    },
    {
      "type": "Feature",
      "properties": {
        "Parcel_ID": "PARCEL-038"
      },
      "geometry": {
        "type": "Polygon",
        "coordinates": [
          [
            [
              82.93295,
              25.3516
            ],
            [
              82.94015,
              25.3523
            ],
            [
              82.94135,
              25.34628
            ],
            [
              82.93235,
              25.34558
            ],
            [
              82.93295,
              25.3516
            ]
          ]
        ]
      }
    },
    {
      "type": "Feature",
      "properties": {
        "Parcel_ID": "PARCEL-039"
      },
      "geometry": {
        "type": "Polygon",
        "coordinates": [
          [
            [
              82.9412,
              25.3516
            ],
            [
              82.9484,
              25.3523
            ],
            [
              82.9496,
              25.34628
            ],
            [
              82.9406,
              25.34558
            ],
            [
              82.9412,
              25.3516
            ]
          ]
        ]
      }
    },
    {
      "type": "Feature",
      "properties": {
        "Parcel_ID": "PARCEL-040"
      },
      "geometry": {
        "type": "Polygon",
        "coordinates": [
          [
            [
              82.94945,
              25.3516
            ],
            [
              82.95665,
              25.3523
            ],
            [
              82.95785,
              25.34628
            ],
            [
              82.94885,
              25.34558
            ],
            [
              82.94945,
              25.3516
            ]
          ]
        ]
      }
    },
    {
      "type": "Feature",
      "properties": {
        "Parcel_ID": "PARCEL-041"
      },
      "geometry": {
        "type": "Polygon",
        "coordinates": [
          [
            [
              82.9577,
              25.3516
            ],
            [
              82.9649,
              25.3523
            ],
            [
              82.9661,
              25.34628
            ],
            [
              82.9571,
              25.34558
            ],
            [
              82.9577,
              25.3516
            ]
          ]
        ]
      }
    },
    {
      "type": "Feature",
      "properties": {
        "Parcel_ID": "PARCEL-042"
      },
      "geometry": {
        "type": "Polygon",
        "coordinates": [
          [
            [
              82.96595,
              25.3516
            ],
            [
              82.97315,
              25.3523
            ],
            [
              82.97435,
              25.34628
            ],
            [
              82.96535,
              25.34558
            ],
            [
              82.96595,
              25.3516
            ]
          ]
        ]
      }
    },
    {
      "type": "Feature",
      "properties": {
        "Parcel_ID": "PARCEL-043"
      },
      "geometry": {
        "type": "Polygon",
        "coordinates": [
          [
            [
              82.9742,
              25.3516
            ],
            [
              82.9814,
              25.3523
            ],
            [
              82.9826,
              25.34628
            ],
            [
              82.9736,
              25.34558
            ],
            [
              82.9742,
              25.3516
            ]
          ]
        ]
      }
    },
    {
      "type": "Feature",
      "properties": {
        "Parcel_ID": "PARCEL-044"
      },
      "geometry": {
        "type": "Polygon",
        "coordinates": [
          [
            [
              82.98245,
              25.3516
            ],
            [
              82.98965,
              25.3523
            ],
            [
              82.99085,
              25.34628
            ],
            [
              82.98185,
              25.34558
            ],
            [
              82.98245,
              25.3516
            ]
          ]
        ]
      }
    },
    {
      "type": "Feature",
      "properties": {
        "Parcel_ID": "PARCEL-045"
      },
      "geometry": {
        "type": "Polygon",
        "coordinates": [
          [
            [
              82.89395,
              25.3453
            ],
            [
              82.90115,
              25.346
            ],
            [
              82.90235,
              25.33998
            ],
            [
              82.89335,
              25.33928
            ],
            [
              82.89395,
              25.3453
            ]
          ]
        ]
      }
    },
    {
      "type": "Feature",
      "properties": {
        "Parcel_ID": "PARCEL-046"
      },
      "geometry": {
        "type": "Polygon",
        "coordinates": [
          [
            [
              82.9022,
              25.3453
            ],
            [
              82.9094,
              25.346
            ],
            [
              82.9106,
              25.33998
            ],
            [
              82.9016,
              25.33928
            ],
            [
              82.9022,
              25.3453
            ]
          ]
        ]
      }
    },
    {
      "type": "Feature",
      "properties": {
        "Parcel_ID": "PARCEL-047"
      },
      "geometry": {
        "type": "Polygon",
        "coordinates": [
          [
            [
              82.91045,
              25.3453
            ],
            [
              82.91765,
              25.346
            ],
            [
              82.91885,
              25.33998
            ],
            [
              82.90985,
              25.33928
            ],
            [
              82.91045,
              25.3453
            ]
          ]
        ]
      }
    },
    {
      "type": "Feature",
      "properties": {
        "Parcel_ID": "PARCEL-048"
      },
      "geometry": {
        "type": "Polygon",
        "coordinates": [
          [
            [
              82.9187,
              25.3453
            ],
            [
              82.9259,
              25.346
            ],
            [
              82.9271,
              25.33998
            ],
            [
              82.9181,
              25.33928
            ],
            [
              82.9187,
              25.3453
            ]
          ]
        ]
      }
    },
    {
      "type": "Feature",
      "properties": {
        "Parcel_ID": "PARCEL-049"
      },
      "geometry": {
        "type": "Polygon",
        "coordinates": [
          [
            [
              82.92695,
              25.3453
            ],
            [
              82.93415,
              25.346
            ],
            [
              82.93535,
              25.33998
            ],
            [
              82.92635,
              25.33928
            ],
            [
              82.92695,
              25.3453
            ]
          ]
        ]
      }
    },
    {
      "type": "Feature",
      "properties": {
        "Parcel_ID": "PARCEL-050"
      },
      "geometry": {
        "type": "Polygon",
        "coordinates": [
          [
            [
              82.9352,
              25.3453
            ],
            [
              82.9424,
              25.346
            ],
            [
              82.9436,
              25.33998
            ],
            [
              82.9346,
              25.33928
            ],
            [
              82.9352,
              25.3453
            ]
          ]
        ]
      }
    },
    {
      "type": "Feature",
      "properties": {
        "Parcel_ID": "PARCEL-051"
      },
      "geometry": {
        "type": "Polygon",
        "coordinates": [
          [
            [
              82.94345,
              25.3453
            ],
            [
              82.95065,
              25.346
            ],
            [
              82.95185,
              25.33998
            ],
            [
              82.94285,
              25.33928
            ],
            [
              82.94345,
              25.3453
            ]
          ]
        ]
      }
    },
    {
      "type": "Feature",
      "properties": {
        "Parcel_ID": "PARCEL-052"
      },
      "geometry": {
        "type": "Polygon",
        "coordinates": [
          [
            [
              82.9517,
              25.3453
            ],
            [
              82.9589,
              25.346
            ],
            [
              82.9601,
              25.33998
            ],
            [
              82.9511,
              25.33928
            ],
            [
              82.9517,
              25.3453
            ]
          ]
        ]
      }
    },
    {
      "type": "Feature",
      "properties": {
        "Parcel_ID": "PARCEL-053"
      },
      "geometry": {
        "type": "Polygon",
        "coordinates": [
          [
            [
              82.95995,
              25.3453
            ],
            [
              82.96715,
              25.346
            ],
            [
              82.96835,
              25.33998
            ],
            [
              82.95935,
              25.33928
            ],
            [
              82.95995,
              25.3453
            ]
          ]
        ]
      }
    },
    {
      "type": "Feature",
      "properties": {
        "Parcel_ID": "PARCEL-054"
      },
      "geometry": {
        "type": "Polygon",
        "coordinates": [
          [
            [
              82.9682,
              25.3453
            ],
            [
              82.9754,
              25.346
            ],
            [
              82.9766,
              25.33998
            ],
            [
              82.9676,
              25.33928
            ],
            [
              82.9682,
              25.3453
            ]
          ]
        ]
      }
    },
    {
      "type": "Feature",
      "properties": {
        "Parcel_ID": "PARCEL-055"
      },
      "geometry": {
        "type": "Polygon",
        "coordinates": [
          [
            [
              82.97645,
              25.3453
            ],
            [
              82.98365,
              25.346
            ],
            [
              82.98485,
              25.33998
            ],
            [
              82.97585,
              25.33928
            ],
            [
              82.97645,
              25.3453
            ]
          ]
        ]
      }
    },
    {
      "type": "Feature",
      "properties": {
        "Parcel_ID": "PARCEL-056"
      },
      "geometry": {
        "type": "Polygon",
        "coordinates": [
          [
            [
              82.9847,
              25.3453
            ],
            [
              82.9919,
              25.346
            ],
            [
              82.9931,
              25.33998
            ],
            [
              82.9841,
              25.33928
            ],
            [
              82.9847,
              25.3453
            ]
          ]
        ]
      }
    },
    {
      "type": "Feature",
      "properties": {
        "Parcel_ID": "PARCEL-057"
      },
      "geometry": {
        "type": "Polygon",
        "coordinates": [
          [
            [
              82.8917,
              25.339
            ],
            [
              82.8989,
              25.3397
            ],
            [
              82.9001,
              25.33368
            ],
            [
              82.8911,
              25.33298
            ],
            [
              82.8917,
              25.339
            ]
          ]
        ]
      }
    },
    {
      "type": "Feature",
      "properties": {
        "Parcel_ID": "PARCEL-058"
      },
      "geometry": {
        "type": "Polygon",
        "coordinates": [
          [
            [
              82.89995,
              25.339
            ],
            [
              82.90715,
              25.3397
            ],
            [
              82.90835,
              25.33368
            ],
            [
              82.89935,
              25.33298
            ],
            [
              82.89995,
              25.339
            ]
          ]
        ]
      }
    },
    {
      "type": "Feature",
      "properties": {
        "Parcel_ID": "PARCEL-059"
      },
      "geometry": {
        "type": "Polygon",
        "coordinates": [
          [
            [
              82.9082,
              25.339
            ],
            [
              82.9154,
              25.3397
            ],
            [
              82.9166,
              25.33368
            ],
            [
              82.9076,
              25.33298
            ],
            [
              82.9082,
              25.339
            ]
          ]
        ]
      }
    },
    {
      "type": "Feature",
      "properties": {
        "Parcel_ID": "PARCEL-060"
      },
      "geometry": {
        "type": "Polygon",
        "coordinates": [
          [
            [
              82.91645,
              25.339
            ],
            [
              82.92365,
              25.3397
            ],
            [
              82.92485,
              25.33368
            ],
            [
              82.91585,
              25.33298
            ],
            [
              82.91645,
              25.339
            ]
          ]
        ]
      }
    },
    {
      "type": "Feature",
      "properties": {
        "Parcel_ID": "PARCEL-061"
      },
      "geometry": {
        "type": "Polygon",
        "coordinates": [
          [
            [
              82.9247,
              25.339
            ],
            [
              82.9319,
              25.3397
            ],
            [
              82.9331,
              25.33368
            ],
            [
              82.9241,
              25.33298
            ],
            [
              82.9247,
              25.339
            ]
          ]
        ]
      }
    },
    {
      "type": "Feature",
      "properties": {
        "Parcel_ID": "PARCEL-062"
      },
      "geometry": {
        "type": "Polygon",
        "coordinates": [
          [
            [
              82.93295,
              25.339
            ],
            [
              82.94015,
              25.3397
            ],
            [
              82.94135,
              25.33368
            ],
            [
              82.93235,
              25.33298
            ],
            [
              82.93295,
              25.339
            ]
          ]
        ]
      }
    },
    {
      "type": "Feature",
      "properties": {
        "Parcel_ID": "PARCEL-063"
      },
      "geometry": {
        "type": "Polygon",
        "coordinates": [
          [
            [
              82.9412,
              25.339
            ],
            [
              82.9484,
              25.3397
            ],
            [
              82.9496,
              25.33368
            ],
            [
              82.9406,
              25.33298
            ],
            [
              82.9412,
              25.339
            ]
          ]
        ]
      }
    },
    {
      "type": "Feature",
      "properties": {
        "Parcel_ID": "PARCEL-064"
      },
      "geometry": {
        "type": "Polygon",
        "coordinates": [
          [
            [
              82.94945,
              25.339
            ],
            [
              82.95665,
              25.3397
            ],
            [
              82.95785,
              25.33368
            ],
            [
              82.94885,
              25.33298
            ],
            [
              82.94945,
              25.339
            ]
          ]
        ]
      }
    },
    {
      "type": "Feature",
      "properties": {
        "Parcel_ID": "PARCEL-065"
      },
      "geometry": {
        "type": "Polygon",
        "coordinates": [
          [
            [
              82.9577,
              25.339
            ],
            [
              82.9649,
              25.3397
            ],
            [
              82.9661,
              25.33368
            ],
            [
              82.9571,
              25.33298
            ],
            [
              82.9577,
              25.339
            ]
          ]
        ]
      }
    },
    {
      "type": "Feature",
      "properties": {
        "Parcel_ID": "PARCEL-066"
      },
      "geometry": {
        "type": "Polygon",
        "coordinates": [
          [
            [
              82.96595,
              25.339
            ],
            [
              82.97315,
              25.3397
            ],
            [
              82.97435,
              25.33368
            ],
            [
              82.96535,
              25.33298
            ],
            [
              82.96595,
              25.339
            ]
          ]
        ]
      }
    },
    {
      "type": "Feature",
      "properties": {
        "Parcel_ID": "PARCEL-067"
      },
      "geometry": {
        "type": "Polygon",
        "coordinates": [
          [
            [
              82.9742,
              25.339
            ],
            [
              82.9814,
              25.3397
            ],
            [
              82.9826,
              25.33368
            ],
            [
              82.9736,
              25.33298
            ],
            [
              82.9742,
              25.339
            ]
          ]
        ]
      }
    },
    {
      "type": "Feature",
      "properties": {
        "Parcel_ID": "PARCEL-068"
      },
      "geometry": {
        "type": "Polygon",
        "coordinates": [
          [
            [
              82.98245,
              25.339
            ],
            [
              82.98965,
              25.3397
            ],
            [
              82.99085,
              25.33368
            ],
            [
              82.98185,
              25.33298
            ],
            [
              82.98245,
              25.339
            ]
          ]
        ]
      }
    },
    {
      "type": "Feature",
      "properties": {
        "Parcel_ID": "PARCEL-069"
      },
      "geometry": {
        "type": "Polygon",
        "coordinates": [
          [
            [
              82.89395,
              25.3327
            ],
            [
              82.90115,
              25.3334
            ],
            [
              82.90235,
              25.32738
            ],
            [
              82.89335,
              25.32668
            ],
            [
              82.89395,
              25.3327
            ]
          ]
        ]
      }
    },
    {
      "type": "Feature",
      "properties": {
        "Parcel_ID": "PARCEL-070"
      },
      "geometry": {
        "type": "Polygon",
        "coordinates": [
          [
            [
              82.9022,
              25.3327
            ],
            [
              82.9094,
              25.3334
            ],
            [
              82.9106,
              25.32738
            ],
            [
              82.9016,
              25.32668
            ],
            [
              82.9022,
              25.3327
            ]
          ]
        ]
      }
    }
  ]
}